BEESAT-4                
1 41619U 16040W   22265.68218254  .00013887  00000+0  43031-3 0  9995
2 41619  97.2075 313.8148 0010577 124.3449 235.8796 15.33491806335616
RAVAN                   
1 41849U 16067B   22265.90888079  .00003102  00000+0  24602-3 0  9994
2 41849  98.0093  45.8067 0015069  16.9706 343.2018 15.01240994320615
CELTEE 1                
1 41850U 16067C   22265.86303981  .00003037  00000+0  25690-3 0  9990
2 41850  98.0118  40.4204 0009016  27.8475 332.3228 14.98809499320346
OPTICUBE 04             
1 41851U 16067D   22265.89106841  .00001006  00000+0  90433-4 0  9992
2 41851  98.0092  39.3743 0009099  21.1333 339.0263 14.98007213320295
AEROCUBE 8D             
1 41852U 16067E   22266.32529329  .00003304  00000+0  27941-3 0  9998
2 41852  98.0087  39.9076 0009661  27.5450 332.6282 14.98754029320351
AEROCUBE 8C             
1 41853U 16067F   22265.90770478  .00002614  00000+0  22241-3 0  9996
2 41853  98.0060  39.2913 0009217  23.3902 336.7737 14.98712731320285
PROMETHEUS 2-1          
1 41854U 16067G   22265.86158246  .00004721  00000+0  38248-3 0  9990
2 41854  98.0096  40.5019 0016197  27.5921 332.6158 15.00121126320344
PROMETHEUS 2-3          
1 41855U 16067H   22266.31963449  .00004454  00000+0  36122-3 0  9993
2 41855  98.0056  41.0593 0014786  42.9426 317.2948 15.00128070320416
INS-1B                  
1 41954U 17008G   22266.11757706  .00014554  00000+0  44822-3 0  9992
2 41954  97.2483 324.0737 0005943 236.4191 123.6485 15.33715659311707
BGUSAT                  
1 41999U 17008BD  22266.17032681  .00040938  00000+0  81972-3 0  9997
2 41999  97.2736 336.5509 0004432 210.2513 149.8481 15.46629770311711
DIDO-2                  
1 42000U 17008BE  22265.66712095  .00006916  00000+0  24245-3 0  9996
2 42000  97.2476 322.5294 0005573 271.0678  88.9924 15.29752217310927
PEASSS                  
1 42015U 17008BV  22265.75038679  .00010942  00000+0  33959-3 0  9997
2 42015  97.2542 327.0007 0003574 258.6169 101.4673 15.33549327311670
AL-FARABI 1             
1 42016U 17008BW  22265.69486727  .00016213  00000+0  44589-3 0  9990
2 42016  97.2609 330.5067 0003052 244.9154 115.1775 15.37264601311974
NAYIF-1 (EO-88)         
1 42017U 17008BX  22265.70016070  .00016255  00000+0  44450-3 0  9996
2 42017  97.2598 330.5361 0003326 243.8121 116.2782 15.37440188312006
UCLSAT                  
1 42765U 17036A   22266.05315141  .00012680  00000+0  41524-3 0  9994
2 42765  97.1892 305.7422 0007943 347.0407  13.0629 15.31764223292191
LITUANICASAT-2          
1 42768U 17036D   22265.68792079  .00025010  00000+0  62411-3 0  9993
2 42768  97.1967 309.1896 0007631 321.0919  38.9778 15.40143867292190
AALTO-1                 
1 42775U 17036L   22265.53655206  .00006211  00000+0  23839-3 0  9998
2 42775  97.1905 299.6802 0011491 351.2689   8.8349 15.26755385291588
URSA MAIOR              
1 42776U 17036M   22266.06797196  .00007711  00000+0  28927-3 0  9992
2 42776  97.1916 301.0258 0011067 347.7915  12.3055 15.27438754291702
COMPASS 2               
1 42777U 17036N   22265.68862961  .00016903  00000+0  48977-3 0  9993
2 42777  97.1957 308.0131 0007507 331.0578  29.0249 15.35598947292059
DIAMOND RED             
1 42783U 17036U   22266.08356803  .00008185  00000+0  29383-3 0  9991
2 42783  97.1922 303.5662 0009537 353.3355   6.7757 15.28883196291850
PEGASUS                 
1 42784U 17036V   22265.90595657  .00010768  00000+0  36458-3 0  9995
2 42784  97.1912 304.7522 0008892 350.7519   9.3558 15.30719487291913
DIAMOND GREEN           
1 42785U 17036W   22266.08426784  .00008970  00000+0  32183-3 0  9993
2 42785  97.1919 303.6298 0009343 355.2908   4.8243 15.28875054291846
DIAMOND BLUE            
1 42786U 17036X   22266.41058599  .00008744  00000+0  31383-3 0  9996
2 42786  97.1919 303.9372 0009374 354.3918   5.7216 15.28873418291895
NUDTSAT                 
1 42787U 17036Y   22266.19803422  .00022383  00000+0  61904-3 0  9992
2 42787  97.1941 309.9536 0006771 335.0506  25.0409 15.37004532292091
SUCHAI                  
1 42788U 17036Z   22266.10304170  .00014103  00000+0  44500-3 0  9994
2 42788  97.1915 306.8655 0007851 343.6350  16.4638 15.32934328292136
SKCUBE                  
1 42789U 17036AA  22265.56641785  .00010837  00000+0  35346-3 0  9998
2 42789  97.1914 305.6867 0008081 347.8575  12.2471 15.31933354291932
VZLUSAT-1               
1 42790U 17036AB  22265.56571686  .00018272  00000+0  51035-3 0  9996
2 42790  97.1935 309.2776 0006307 336.4707  23.6249 15.36740778292140
ROBUSTA 1B              
1 42792U 17036AD  22266.39892398  .00014080  00000+0  44833-3 0  9997
2 42792  97.1910 307.1396 0007530 344.7104  15.3910 15.32644645292114
CICERO 6                
1 42793U 17036AE  22266.04730434  .00008360  00000+0  30196-3 0  9993
2 42793  97.1897 304.0353 0008129 355.3318   4.7845 15.28687855291975
CORVUS BC2              
1 42846U 17042X   22265.52964915  .00001474  00000+0  14640-3 0  9999
2 42846  97.4114 117.3042 0010359  38.9965 321.2001 14.93100708282765
CORVUS BC1              
1 42847U 17042Y   22265.53659585  .00001433  00000+0  14206-3 0  9998
2 42847  97.4116 117.6331 0010046  38.2467 321.9464 14.93196996282770
MIRATA                  
1 43015U 17073C   22265.68354006  .00004741  00000+0  34258-3 0  9990
2 43015  97.6608 157.3937 0233848 220.8883 137.4588 14.85137604261694
MAKERSAT 0              
1 43016U 17073D   22265.70017929  .00003670  00000+0  27333-3 0  9990
2 43016  97.6621 156.7451 0241728 226.0599 132.0447 14.83116496261590
CORVUS BC3              
1 43118U 18004H   22266.14636038  .00007333  00000+0  26632-3 0  9996
2 43118  97.3556 337.6294 0009337  26.5181 333.6535 15.28551614261132
MICROMAS-2A             
1 43131U 18004W   22266.19305114  .00028303  00000+0  70040-3 0  9996
2 43131  97.3697 345.9417 0005235   7.6861 352.4465 15.40392462261601
SPACEBEE-4              
1 43139U 18004AE  22265.86912147  .00074916  00000+0  11452-2 0  9999
2 43139  97.3788 352.1966 0003162 338.5668  21.5453 15.54143325261920
SPACEBEE-3              
1 43140U 18004AF  22266.20459877  .00667683  17706-3  22443-2 0  9992
2 43140  97.3736 358.9300 0008623 276.2546  83.7744 15.90008123262369
CICERO 7                
1 43143U 18004AJ  22266.19204291  .00015374  00000+0  43780-3 0  9998
2 43143  97.3678 344.9522 0005381  26.2774 333.8742 15.36182684261565
GOMX-4B                 
1 43196U 18015E   22266.34868477  .00007769  00000+0  28497-3 0  9994
2 43196  97.5466  46.7859 0018095  73.6696 286.6531 15.28103008258106
GOMX-4A                 
1 43197U 18015F   22266.53555753  .00008150  00000+0  28194-3 0  9995
2 43197  97.5457  48.0462 0017636  71.8787 352.5641 15.30011461258214
AEROCUBE 12A            
1 43556U 18046C   22265.72216713  .00022740  00000+0  52047-3 0  9993
2 43556  51.6359  68.5451 0006067  27.5498 332.5809 15.42682496234317
AEROCUBE 12B            
1 43557U 18046D   22265.73891654  .00016628  00000+0  41984-3 0  9994
2 43557  51.6378  74.5741 0006368  25.4759 334.6539 15.39931401234186
SURFSAT                 
1 43614U 18070B   22266.42297299  .00051552  00000+0  57136-3 0  9998
2 43614  93.0176 140.5119 0008453  10.8479 349.2968 15.62760831226321
CP7 (DAVE)              
1 43615U 18070C   22265.57271399  .00042022  00000+0  50821-3 0  9993
2 43615  93.0170 139.8861 0009620  15.9998 344.1570 15.60509228226142
ELFIN-B                 
1 43616U 18070D   22266.13698195  .00873348  40399-3  12015-2 0  9998
2 43616  93.0000 142.5517 0002205 177.8398 182.2903 16.06259705226771
CUBEBEL-1 (BSUSAT-1)    
1 43666U 18083E   22266.50024979  .00009439  00000+0  38332-3 0  9995
2 43666  97.4154 294.1424 0012250 357.1408 140.4288 15.24728864216419
CICERO 10               
1 43690U 18088A   22266.43755771  .00008750  00000+0  33679-3 0  9994
2 43690  85.0324 251.2250 0015195 136.7251 223.5190 15.26101359214674
IRVINE01                
1 43693U 18088D   22265.68684893  .00049672  00000+0  10671-2 0  9993
2 43693  85.0242 244.5989 0015381 103.3129 256.9842 15.44355767215197
PROXIMA I               
1 43694U 18088E   22265.70224478  .00009065  00000+0  33132-3 0  9996
2 43694  85.0261 248.1595 0019426 111.0407 249.2918 15.27741839214807
PROXIMA II              
1 43696U 18088G   22265.96597911  .00009381  00000+0  34316-3 0  9997
2 43696  85.0263 248.0059 0019476 110.2188 250.1154 15.27718298214847
FACSAT-1                
1 43721U 18096C   22266.50776576  .00023518  00000+0  59491-3 0  9991
2 43721  97.3443 346.4176 0013685  65.2492  62.7316 15.39675425213043
CENTAURI-2              
1 43722U 18096D   22266.17533245  .00032370  00000+0  70268-3 0  9990
2 43722  97.3507 348.6904 0011744  59.5781 300.6626 15.44241448213137
INNOSAT-2               
1 43738U 18096V   22266.49876419  .00091263  00000+0  11037-2 0  9999
2 43738  97.3586 358.0364 0009175  39.3827  89.5589 15.60351162213738
SIRION PATHFINDER-2     
1 43759U 18099B   22265.86138327  .00002082  00000+0  18744-3 0  9998
2 43759  97.6118 330.0557 0012304 297.1313  62.8653 14.96633178207615
CORVUS BC4              
1 43767U 18099K   22265.85472647  .00002132  00000+0  19482-3 0  9998
2 43767  97.6072 328.4137 0010021 304.8267  55.2011 14.96038409207537
MOVE-II                 
1 43780U 18099Y   22265.87089182  .00004710  00000+0  39936-3 0  9993
2 43780  97.6176 331.0485 0010737 308.6728  51.3533 14.98383676207640
SPACEBEE-7              
1 43816U 18099BL  22266.13446581  .00003872  00000+0  33100-3 0  9998
2 43816  97.6187 332.0333 0010713 286.9263  73.0785 14.98168327207274
SPACEBEE-5              
1 43817U 18099BM  22266.14030332  .00009271  00000+0  70004-3 0  9996
2 43817  97.6282 335.6002 0004836 277.6933  82.3743 15.02609077207436
SPACEBEE-6              
1 43818U 18099BN  22265.41653699  .00004835  00000+0  39888-3 0  9999
2 43818  97.6261 332.4185 0009869 293.1731  66.8453 14.99440615207364
